C/2021 D2 (ZTF),h,02/03.9607/2022,83.8025,305.6685,125.0278,1.001648,2.946330,2000,9.0,4.0
# From MPEC 2022-UY9
A/2021 E2,e,167.4888,190.8108,342.3385,217.9427,0.0003063,0.98952316,0.0000,12/10.1996/2020,2000,g 15.0,2.0
# From MPEC 2023-J29
C/2021 E3 (ZTF),h,06/11.8550/2022,112.5390,104.4812,228.8413,1.000696,1.777184,2000,8.5,4.0
# From MPEC 2023-SQ0
A/2021 E4,e,116.3618,171.1666,48.2627,552.8095,0.0000758,0.99154061,0.0000,04/25.0890/2022,2000,g 13.5,22.0
# From MPEC 2022-QD9
C/2021 F1 (Lemmon-PANSTARRS),e,7.3193,203.4595,146.8603,240.0957,0.0002649,0.99584885,0.0000,04/06.8085/2022,2000,g 13.5,4.0
# From MPEC 2021-J72
C/2021 G1 (Leonard),e,131.5465,270.6980,107.4452,73.19661,0.0015739,0.95322268,1.3461,11/24.0/2023,2000,g 14.0,4.0
# From MPEC 2023-W26
C/2021 G2 (ATLAS),e,48.4750,221.0935,343.3020,16156,0.0000005,0.99969162,0.0000,09/09.4069/2024,2000,g  5.5,4.0
# From MPEC 2022-X67
C/2021 G3 (PANSTARRS),e,102.8708,147.3941,10.5851,23347,0.0000003,0.99977814,0.0000,10/17.9966/2021,2000,g 10.5,4.0
# From MPEC 2021-Y10
P/2021 HS (PANSTARRS),e,12.1583,262.3707,46.1360,4.194599,0.1147277,0.80966334,96.3673,11/24.0/2023,2000,g 22.0,4.0
# From MPEC 2022-C56
C/2021 J1 (Maury-Attard),e,92.7172,88.3924,147.3021,26.34253,0.0072898,0.93395791,7.3454,11/24.0/2023,2000,g 15.5,4.0
# From MPEC 2023-VM5
C/2021 J2 (PANSTARRS),e,156.2131,23.3348,171.9846,116.3332,0.0007855,0.95956858,0.6230,11/24.0/2023,2000,g 12.0,4.0
# From MPEC 2023-VM5
P/2021 J3 (ATLAS),e,14.5277,111.1261,125.9242,8.920750,0.0369915,0.44900905,59.3762,11/24.0/2023,2000,g  7.0,4.0
# From MPEC 2022-O08
C/2021 K1 (ATLAS),e,16.2744,140.9116,184.2767,12.65708,0.0218879,0.80249688,20.4441,11/24.0/2023,2000,g 11.0,4.0
# From MPEC 2022-O01
C/2021 K2 (MASTER),h,09/09.7278/2021,0.8407,282.1346,343.5101,1.000917,5.469115,2000,8.0,4.0
# From MPEC 2022-L66
C/2021 K3 (Catalina),h,02/03.7887/2022,34.7655,114.5532,182.0526,1.003188,5.233321,2000,10.0,4.0
# From MPEC 2021-W31
P/2021 L2 (Leonard),e,21.0659,266.6553,51.5077,4.048805,0.1209800,0.52092680,103.1925,11/24.0/2023,2000,g 17.0,4.0
# From MPEC 2023-M14
C/2021 L3 (Borisov),h,02/14.4286/2022,78.5711,344.9876,91.6229,1.004140,8.458297,2000,10.1,4.0
# From MPEC 2022-TA0
P/2021 N1 (ZTF),e,11.4925,301.1560,21.2365,2.978429,0.1917446,0.67614701,172.7157,11/24.0/2023,2000,g 19.0,4.0
# From MPEC 2023-W26
P/2021 N2 (Fuls),e,13.0612,221.7315,177.5076,6.941144,0.0538961,0.45262161,39.8754,11/24.0/2023,2000,g  9.5,4.0
# From MPEC 2022-YB4
C/2021 N3 (PANSTARRS),e,26.7443,337.4967,304.7432,148.3201,0.0005456,0.96145222,0.6505,11/24.0/2023,2000,g  8.5,4.0
# From MPEC 2022-A21
C/2021 O1 (Nishimura),e,27.5969,41.5979,74.3984,2516,0.0000078,0.99968821,0.0000,08/14.1460/2021,2000,g 10.5,4.0
# From MPEC 2022-L66
C/2021 O3 (PANSTARRS),h,04/21.0763/2022,56.7959,188.9939,299.9554,1.000047,0.286503,2000,10.5,4.0
# From MPEC 2022-CN4
C/2021 P1 (PANSTARRS),e,51.6392,359.6992,40.4655,2314,0.0000089,0.99810924,0.0000,06/02.4913/2022,2000,g 11.0,4.0
# From MPEC 2023-R20
C/2021 P2 (PANSTARRS),e,150.0634,32.0804,76.7111,3585,0.0000046,0.99858590,0.0000,01/22.8974/2023,2000,g  9.0,4.0
# From MPEC 2021-W31
P/2021 P3 (PANSTARRS),e,27.1614,358.2416,334.0951,4.412453,0.1063369,0.33885874,96.5633,11/24.0/2023,2000,g 14.0,4.0
# From MPEC 2023-A50
C/2021 P4 (ATLAS),e,56.3165,348.0804,175.7987,301.0200,0.0001887,0.99641250,0.0000,07/30.3392/2022,2000,g  9.5,4.0
# From MPEC 2023-E68
P/2021 PE20 (ATLAS),e,20.0041,99.6288,210.4720,3.745918,0.1359461,0.67011821,122.3874,11/24.0/2023,2000,g 17.0,4.0
# From MPEC 2023-FK0
C/2021 Q3 (ATLAS),e,77.7488,307.9151,114.1096,75.70863,0.0014962,0.93124697,0.9975,11/24.0/2023,2000,g  8.0,4.0
# From MPEC 2023-W26
C/2021 Q4 (Fuls),h,06/11.1051/2023,71.4784,183.3303,147.0439,1.003045,7.564894,2000,6.0,4.0
# From MPEC 2022-C56
P/2021 Q5 (ATLAS),e,10.7387,239.7580,180.9233,3.286775,0.1654052,0.62464283,134.8452,11/24.0/2023,2000,g 15.0,4.0
# From MPEC 2023-VM5
C/2021 Q6 (PANSTARRS),h,03/24.7404/2024,161.8473,133.5350,141.0038,1.000409,8.707919,2000,6.0,4.0
# From MPEC 2023-FK0
C/2021 QM45 (PANSTARRS),e,22.8194,354.5940,72.8395,379.5456,0.0001333,0.99269111,0.0000,08/13.5806/2022,2000,g 11.0,4.0
# From MPEC 2022-X67
P/2021 R1 (PANSTARRS),e,5.5198,143.2882,220.2978,8.315617,0.0411019,0.41243765,29.1270,11/24.0/2023,2000,g 11.0,4.0
# From MPEC 2022-X67
C/2021 R2 (PANSTARRS),e,134.4827,16.3008,32.4787,3227,0.0000054,0.99773302,0.0000,12/27.3999/2021,2000,g  7.5,4.0
# From MPEC 2021-W31
P/2021 R3 (PANSTARRS),e,19.9305,304.1971,2.7377,3.771641,0.1345577,0.33100886,122.7624,11/24.0/2023,2000,g 16.0,4.0
# From MPEC 2021-W31
P/2021 R4 (Wierzchos),e,21.0307,321.2972,56.6893,5.624032,0.0738979,0.58593728,56.9702,11/24.0/2023,2000,g 16.0,4.0
# From MPEC 2022-Y15
P/2021 R5 (Rankin),e,7.8545,219.9541,167.5004,4.794992,0.0938690,0.30660515,63.8636,11/24.0/2023,2000,g 12.0,4.0
# From MPEC 2021-W31
P/2021 R6 (Groeller),e,34.9213,176.1564,220.7914,6.283091,0.0625812,0.59343340,47.1126,11/24.0/2023,2000,g 14.5,4.0
# From MPEC 2022-X67
C/2021 R7 (PANSTARRS),e,158.8595,170.1606,140.2913,858.6082,0.0000392,0.99341855,0.0000,04/16.5174/2021,2000,g 10.5,4.0
# From MPEC 2021-Y10
P/2021 R8 (Sheppard),e,2.2034,167.0744,190.8214,3.018555,0.1879340,0.29323817,146.1250,11/24.0/2023,2000,g 18.5,4.0
# From MPEC 2023-J29
C/2021 S1 (ATLAS),h,03/01.3289/2022,52.0608,299.8745,148.2158,1.002379,6.119988,2000,7.0,4.0
# From MPEC 2023-VM5
C/2021 S3 (PANSTARRS),h,02/14.7138/2024,58.5334,215.6208,6.8582,1.000247,1.320182,2000,5.5,4.0
# From MPEC 2023-W26
C/2021 S4 (Tsuchinshan),e,17.4789,5.4900,72.8803,164.2938,0.0004680,0.95928459,359.9815,11/24.0/2023,2000,g  6.5,4.0
# From MPEC 2022-OB6
C/2021 T1 (Lemmon),e,40.3603,56.8449,51.5291,1654,0.0000147,0.99815078,0.0000,10/14.2768/2021,2000,g 12.5,4.0
# From MPEC 2023-A50
C/2021 T2 (Fuls),h,06/07.9781/2022,117.5404,223.2349,263.5956,1.000461,1.247313,2000,12.0,4.0
# From MPEC 2023-W26
C/2021 T4 (Lemmon),e,160.7774,257.8850,329.8221,22525,0.0000003,0.99993415,0.0000,07/31.5400/2023,2000,g  7.5,4.0
# From MPEC 2022-ED3
P/2021 U1 (Wierzchos),e,30.5520,246.7975,145.1313,8.530050,0.0395619,0.71305257,31.0097,11/24.0/2023,2000,g 14.5,4.0
# From MPEC 2022-L66
P/2021 U3 (Attard-Maury),e,69.9575,75.1017,335.2534,4.194190,0.1147445,0.54990485,87.2138,11/24.0/2023,2000,g 15.5,4.0
# From MPEC 2021-W31
C/2021 U4 (Leonard),e,152.8874,241.8084,237.3232,45.05934,0.0032586,0.96030085,2.2875,11/24.0/2023,2000,g 17.0,4.0
# From MPEC 2022-WQ9
C/2021 U5 (Catalina),e,39.0474,182.7454,321.4278,216.7719,0.0003088,0.98910692,0.0000,01/26.6114/2022,2000,g 13.0,4.0
# From MPEC 2022-CN4
C/2021 V1 (Rankin),e,71.4535,207.6673,195.1484,651.7348,0.0000592,0.99537383,0.0000,04/30.5287/2022,2000,g 13.0,4.0
# From MPEC 2023-KD6
P/2021 V2 (Fuls),e,12.6946,232.2764,259.8409,9.069728,0.0360838,0.61447941,11.0608,11/24.0/2023,2000,g 10.0,4.0
# From MPEC 2023-W26
C/2021 X1 (Maury-Attard),h,05/27.1536/2023,140.0987,10.5923,334.5632,1.000521,3.233298,2000,7.0,4.0
# From MPEC 2023-A50
A/2021 X2,h,07/08.0631/2022,137.1614,228.8218,193.2976,1.000791,2.995044,2000,16.0,2.0
# From MPEC 2023-N01
C/2021 Y1 (ATLAS),h,04/30.7289/2023,77.1920,244.7681,245.8264,1.001000,2.032467,2000,7.0,4.0
# From MPEC 2022-YN2
C/2022 A1 (Sarneczky),e,116.5235,285.5150,201.2315,348.9236,0.0001512,0.99640716,0.0000,01/31.0767/2022,2000,g 18.0,4.0
# From MPEC 2023-W26
C/2022 A2 (PANSTARRS),h,02/18.2653/2023,108.1340,171.5835,88.3716,1.000395,1.735397,2000,9.5,4.0
# From MPEC 2023-VM5
C/2022 A3 (Lemmon-ATLAS),e,88.3417,325.4777,234.8489,872.0591,0.0000383,0.99575317,0.0000,09/28.8587/2023,2000,g  8.0,4.0
# From MPEC 2022-K19
P/2022 B1 (Wierzchos),e,10.9897,325.4477,148.8564,5.466602,0.0771131,0.65326451,49.0865,11/24.0/2023,2000,g 16.5,4.0
# From MPEC 2022-YB4
A/2022 B3,e,132.0523,286.1849,150.6936,768.4042,0.0000463,0.99518538,0.0000,01/17.3916/2022,2000,g 16.5,2.0
# From MPEC 2022-GA9
C/2022 B4 (Bok),e,20.0451,340.6238,152.9399,381.0458,0.0001325,0.99638405,0.0000,01/29.9759/2022,2000,g 21.0,4.0
# From MPEC 2023-J29
P/2022 BV9 (Lemmon),e,11.9313,337.3071,16.2926,4.362452,0.1081703,0.23448379,121.8007,11/24.0/2023,2000,g  9.5,4.0
# From MPEC 2023-J29
P/2022 C1 (PANSTARRS),e,4.7622,113.1255,9.3478,7.225241,0.0507488,0.44854595,38.0371,11/24.0/2023,2000,g 12.0,4.0
# From MPEC 2023-VM5
P/2022 C2 (PANSTARRS),e,9.9815,135.2613,89.2459,6.038647,0.0664193,0.44195590,31.5354,11/24.0/2023,2000,g 12.5,4.0
# From MPEC 2023-UR6
P/2022 C3 (PANSTARRS),e,12.8187,139.0441,93.8998,9.628252,0.0329900,0.54573256,16.8654,11/24.0/2023,2000,g 11.5,4.0
# From MPEC 2022-K19
P/2022 D1 (PANSTARRS),e,44.0782,47.9586,88.6653,7.402623,0.0489357,0.54740901,40.0254,11/24.0/2023,2000,g 12.5,4.0
# From MPEC 2022-K19
C/2022 D2 (Kowalski),e,22.6591,312.4313,177.7909,369.6630,0.0001387,0.99579662,0.0000,03/27.6372/2022,2000,g 17.0,4.0
# From MPEC 2023-W26
C/2022 E2 (ATLAS),h,09/14.0564/2024,137.1264,125.3704,41.7034,1.000739,3.666594,2000,5.0,4.0
# From MPEC 2023-W26
C/2022 E3 (ZTF),h,01/12.7614/2023,109.1683,302.5543,145.8122,1.000162,1.112307,2000,7.5,4.0
# From MPEC 2023-R20
C/2022 F1 (ATLAS),e,57.9777,350.6484,278.2886,4948,0.0000028,0.99879247,0.0000,08/05.2370/2022,2000,g  7.0,4.0
# From MPEC 2022-QD9
C/2022 F2 (NEOWISE),e,97.3109,58.7852,200.6209,24.05972,0.0083516,0.93400770,5.0996,11/24.0/2023,2000,g 14.5,4.0
# From MPEC 2023-J95
C/2022 H1 (PANSTARRS),e,49.8377,6.3421,246.1524,732.7866,0.0000497,0.98949659,0.0000,01/17.1855/2024,2000,g  6.0,4.0
# From MPEC 2022-VC5
C/2022 J1 (Maury-Attard),e,105.9478,280.7532,305.6677,47.62821,0.0029985,0.96632007,1.9279,11/24.0/2023,2000,g 14.9,4.0
# From MPEC 2023-M14
C/2022 J2 (Bok),e,149.1337,252.6349,133.0911,92.23295,0.0011127,0.98020239,0.0000,10/27.0671/2022,2000,g  9.0,4.0
# From MPEC 2023-W26
C/2022 JK5 (PANSTARRS),e,16.8312,59.6490,247.1849,43.35117,0.0034530,0.93801268,0.7221,11/24.0/2023,2000,g 11.0,4.0
# From MPEC 2022-ST7
C/2022 K1 (Leonard),h,12/17.4080/2021,41.9629,136.3323,142.6502,1.002293,3.989082,2000,11.0,4.0
# From MPEC 2023-CD7
